[{"OBJECT_NAME":"IRIDIUM 105","OBJECT_ID":"2017-003E","EPOCH":"2026-03-09T19:29:46.518144","MEAN_MOTION":14.34401202,"ECCENTRICITY":0.0002251,"INCLINATION":86.3921,"RA_OF_ASC_NODE":98.4421,"ARG_OF_PERICENTER":92.6468,"MEAN_ANOMALY":267.4986,"EPHEMERIS_TYPE":0,"CLASSIFICATION_TYPE":"U","NORAD_CAT_ID":41921,"ELEMENT_SET_NO":999,"REV_AT_EPOCH":48089,"BSTAR":7.7196279e-5,"MEAN_MOTION_DOT":2.37e-6,"MEAN_MOTION_DDOT":0},{"OBJECT_NAME":"COSMOS 2251 DEB","OBJECT_ID":"1993-036BAN","EPOCH":"2026-03-02T07:40:43.842432","MEAN_MOTION":13.4809569,"ECCENTRICITY":0.04260445,"INCLINATION":73.9671,"RA_OF_ASC_NODE":269.6643,"ARG_OF_PERICENTER":226.2068,"MEAN_ANOMALY":130.3061,"EPHEMERIS_TYPE":0,"CLASSIFICATION_TYPE":"U","NORAD_CAT_ID":36439,"ELEMENT_SET_NO":999,"REV_AT_EPOCH":59685,"BSTAR":0.00087756968,"MEAN_MOTION_DOT":9.23e-6,"MEAN_MOTION_DDOT":0}]
